OBJECT_NAME,OBJECT_ID,EPOCH,MEAN_MOTION,ECCENTRICITY,INCLINATION,RA_OF_ASC_NODE,ARG_OF_PERICENTER,MEAN_ANOMALY,EPHEMERIS_TYPE,CLASSIFICATION_TYPE,NORAD_CAT_ID,ELEMENT_SET_NO,REV_AT_EPOCH,BSTAR,MEAN_MOTION_DOT,MEAN_MOTION_DDOT
GAOFEN-11 01,2018-063A,2026-06-09T06:13:00.979104,15.55059959,.00039992,97.1296,227.1618,25.8374,334.3080,0,U,43585,999,43911,.20215998E-3,.13493E-3,0
ICESAT-2,2018-070A,2026-06-09T07:08:22.784352,15.28276428,.00053271,92.0067,288.8488,117.3097,242.8696,0,U,43613,999,43125,.32864928E-3,.9054E-4,0
HYSIS,2018-096A,2026-06-09T07:03:36.866016,14.78681629,.00017181,97.9837,227.1039,111.1160,249.0235,0,U,43719,999,40625,.20258912E-3,.1433E-4,0
KAZSTSAT,2018-099AB,2026-06-09T02:12:03.212640,14.99843069,.00079195,97.4264,192.3885,90.8031,269.4101,0,U,43783,999,41009,.98270934E-4,.1162E-4,0
SAUDISAT 5A,2018-102A,2026-06-09T05:46:53.678784,15.27965059,.00104335,97.3071,221.9753,153.9032,206.2736,0,U,43831,999,41446,.18478257E-3,.4976E-4,0
SAUDISAT 5B,2018-102C,2026-06-09T07:50:15.381888,15.28227066,.00110774,97.3179,225.1146,156.1856,203.9898,0,U,43833,999,41459,.17334939E-3,.4702E-4,0
GAOFEN-10R,2019-066A,2026-06-09T06:14:12.081120,14.83043107,.00061302,98.0494,113.7815,149.6071,210.5499,0,U,44622,999,36120,.13772986E-3,.1066E-4,0
CARTOSAT-3,2019-081A,2026-06-09T07:40:07.669344,15.19226506,.00124276,97.4302,222.3128,175.0190,185.1171,0,U,44804,999,36227,.19791416E-3,.4108E-4,0
GAOFEN-12 01,2019-082A,2026-06-09T07:22:12.747072,14.80452015,.00024662,97.8106,166.8946,79.5919,280.5572,0,U,44819,999,35292,.52879171E-4,.354E-5,0
CSG-1,2019-092A,2026-06-09T06:54:11.013408,14.82158246,.00014372,97.8887,344.0047,90.5925,269.5453,0,U,44873,999,35030,.57086232E-4,.402E-5,0
NEMO-HD,2020-061F,2026-06-09T05:24:57.270240,15.44433504,.00025419,97.1924,222.2596,89.2300,270.9240,0,U,46277,999,32075,.21797932E-3,.9997E-4,0
SENTINEL-6A,2020-086A,2026-06-09T06:40:09.727968,12.80929812,.00079401,66.0386,151.4801,270.2919,89.7187,0,U,46984,999,25931,.13401453E-3,-.3E-6,0
CAS500-1,2021-022A,2026-06-09T07:05:49.224768,15.20114928,.00045754,97.3908,55.7092,338.8835,21.2210,0,U,47932,999,28956,.40072434E-4,.798E-5,0
GAOFEN-12 02,2021-026A,2026-06-09T05:59:35.177280,14.80289894,.00033423,97.9920,158.4629,257.1405,102.9434,0,U,48079,999,28058,.52418836E-4,.346E-5,0
PLEIADES NEO 3,2021-034A,2026-06-09T06:49:25.211712,14.81669270,.00013611,97.8924,235.1647,86.8425,273.2943,0,U,48268,999,27648,.9764795E-4,.716E-5,0
PLEIADES NEO 4,2021-073E,2026-06-08T23:31:49.386144,14.81666705,.00013962,97.8928,234.8608,84.4017,275.7355,0,U,49070,999,26015,.18495191E-3,.1403E-4,0
LANDSAT 9,2021-088A,2026-06-09T05:32:20.155776,14.57105145,.00014521,98.2279,230.5042,88.0595,272.0770,0,U,49260,999,24984,.68138923E-4,.262E-5,0
CSG-2,2022-008A,2026-06-09T06:05:33.365760,14.82148867,.00013945,97.8890,343.9667,84.0399,276.0973,0,U,51444,999,23541,.112125E-6,-.51E-6,0
GAOFEN-12 03,2022-069A,2026-06-09T06:40:35.565024,14.80022404,.00017272,97.8286,48.3473,109.1377,251.0022,0,U,52912,999,21344,.10142714E-3,.717E-5,0
SWOT,2022-173A,2026-06-09T04:47:36.963168,14.00168582,.00002088,77.6112,46.0931,95.8715,264.2461,0,U,54754,999,17803,.33600248E-4,.47E-6,0
GAOFEN-12 04,2023-123A,2026-06-09T07:06:06.649920,14.80213336,.00017843,97.9126,78.4270,86.4705,273.6711,0,U,57654,999,15146,.12545387E-3,.902E-5,0
PARS 1,2024-039Q,2026-06-09T06:52:55.002144,15.45560064,.00109926,97.4819,140.9587,135.1667,225.0472,0,U,59065,999,12742,.20271442E-3,.9669E-4,0
RESURS-P 4,2024-061A,2026-06-09T07:04:58.678176,15.32085815,.00015678,97.2745,108.3316,131.9529,228.1846,0,U,59371,999,12255,.89382203E-4,.2693E-4,0
LEGION 1,2024-081A,2026-06-09T05:51:02.750112,15.16611296,.00102653,97.5017,238.1859,43.6167,316.5876,0,U,59625,999,11633,.17154719E-3,.3289E-4,0
LEGION 2,2024-081B,2026-06-09T06:34:03.765216,15.16591410,.00115395,97.5016,238.3130,11.7309,348.4191,0,U,59626,999,11634,.16388061E-3,.3138E-4,0
ALOS-4 (DAICHI-4),2024-123A,2026-06-09T05:53:28.612320,14.79469239,.00016278,97.9241,257.5307,97.4618,262.6779,0,U,60182,999,10470,.18468382E-3,.1328E-4,0
LEGION 3,2024-146A,2026-06-09T05:22:04.869408,15.15977908,.00069432,45.0012,73.2623,119.9013,240.2556,0,U,60452,999,10081,.21578423E-3,.3952E-4,0
LEGION 4,2024-146B,2026-06-09T07:01:20.645184,15.15975776,.00140872,45.0003,164.8039,267.2949,92.6317,0,U,60453,999,9967,.16035519E-3,.2871E-4,0
SENTINEL-2C,2024-157A,2026-06-09T04:48:44.270496,14.30815638,.00011578,98.5691,235.0953,79.8088,280.3226,0,U,60989,999,9184,.47794477E-4,.82E-6,0
IONOSFERA-M 1,2024-199A,2026-06-09T05:55:37.147872,14.22752766,.00017108,98.7184,33.5027,120.9124,239.2222,0,U,61735,999,12657,.3357519E-4,.31E-6,0
