GAOFEN-11 01            
1 43585U 18063A   26160.25903911  .00013493  00000+0  20216-3 0  9991
2 43585  97.1296 227.1618 0003999  25.8374 334.3080 15.55059959439119
ICESAT-2                
1 43613U 18070A   26160.29748593  .00009054  00000+0  32865-3 0  9999
2 43613  92.0067 288.8488 0005327 117.3097 242.8696 15.28276428431251
HYSIS                   
1 43719U 18096A   26160.29417669  .00001433  00000+0  20259-3 0  9998
2 43719  97.9837 227.1039 0001718 111.1160 249.0235 14.78681629406255
KAZSTSAT                
1 43783U 18099AB  26160.09170385  .00001162  00000+0  98271-4 0  9990
2 43783  97.4264 192.3885 0007919  90.8031 269.4101 14.99843069410092
SAUDISAT 5A             
1 43831U 18102A   26160.24089906  .00004976  00000+0  18478-3 0  9990
2 43831  97.3071 221.9753 0010433 153.9032 206.2736 15.27965059414465
SAUDISAT 5B             
1 43833U 18102C   26160.32656692  .00004702  00000+0  17335-3 0  9991
2 43833  97.3179 225.1146 0011077 156.1856 203.9898 15.28227066414599
GAOFEN-10R              
1 44622U 19066A   26160.25986205  .00001066  00000+0  13773-3 0  9998
2 44622  98.0494 113.7815 0006130 149.6071 210.5499 14.83043107361201
CARTOSAT-3              
1 44804U 19081A   26160.31953321  .00004108  00000+0  19791-3 0  9993
2 44804  97.4302 222.3128 0012427 175.0190 185.1171 15.19226506362277
GAOFEN-12 01            
1 44819U 19082A   26160.30709198  .00000354  00000+0  52879-4 0  9994
2 44819  97.8106 166.8946 0002466  79.5919 280.5572 14.80452015352927
CSG-1                   
1 44873U 19092A   26160.28762747  .00000402  00000+0  57086-4 0  9990
2 44873  97.8887 344.0047 0001437  90.5925 269.5453 14.82158246350308
NEMO-HD                 
1 46277U 20061F   26160.22566285  .00009997  00000+0  21798-3 0  9999
2 46277  97.1924 222.2596 0002541  89.2300 270.9240 15.44433504320756
SENTINEL-6A             
1 46984U 20086A   26160.27789037 -.00000030  00000+0  13401-3 0  9990
2 46984  66.0386 151.4801 0007940 270.2919  89.7187 12.80929812259314
CAS500-1                
1 47932U 21022A   26160.29570862  .00000798  00000+0  40072-4 0  9996
2 47932  97.3908  55.7092 0004575 338.8835  21.2210 15.20114928289561
GAOFEN-12 02            
1 48079U 21026A   26160.24971270  .00000346  00000+0  52419-4 0  9993
2 48079  97.9920 158.4629 0003342 257.1405 102.9434 14.80289894280586
PLEIADES NEO 3          
1 48268U 21034A   26160.28431958  .00000716  00000+0  97648-4 0  9994
2 48268  97.8924 235.1647 0001361  86.8425 273.2943 14.81669270276482
PLEIADES NEO 4          
1 49070U 21073E   26159.98043271  .00001403  00000+0  18495-3 0  9997
2 49070  97.8928 234.8608 0001396  84.4017 275.7355 14.81666705260151
LANDSAT 9               
1 49260U 21088A   26160.23078884  .00000262  00000+0  68139-4 0  9995
2 49260  98.2279 230.5042 0001452  88.0595 272.0770 14.57105145249848
CSG-2                   
1 51444U 22008A   26160.25385840 -.00000051  00000+0  11213-6 0  9990
2 51444  97.8890 343.9667 0001394  84.0399 276.0973 14.82148867235417
GAOFEN-12 03            
1 52912U 22069A   26160.27818941  .00000717  00000+0  10143-3 0  9999
2 52912  97.8286  48.3473 0001727 109.1377 251.0022 14.80022404213446
SWOT                    
1 54754U 22173A   26160.19973337  .00000047  00000+0  33600-4 0  9993
2 54754  77.6112  46.0931 0000208  95.8715 264.2461 14.00168582178038
GAOFEN-12 04            
1 57654U 23123A   26160.29591030  .00000902  00000+0  12545-3 0  9992
2 57654  97.9126  78.4270 0001784  86.4705 273.6711 14.80213336151466
PARS 1                  
1 59065U 24039Q   26160.28674771  .00009669  00000+0  20271-3 0  9994
2 59065  97.4819 140.9587 0010992 135.1667 225.0472 15.45560064127423
RESURS-P 4              
1 59371U 24061A   26160.29512359  .00002693  00000+0  89382-4 0  9992
2 59371  97.2745 108.3316 0001567 131.9529 228.1846 15.32085815122556
LEGION 1                
1 59625U 24081A   26160.24378183  .00003289  00000+0  17155-3 0  9996
2 59625  97.5017 238.1859 0010265  43.6167 316.5876 15.16611296116333
LEGION 2                
1 59626U 24081B   26160.27365469  .00003138  00000+0  16388-3 0  9993
2 59626  97.5016 238.3130 0011539  11.7309 348.4191 15.16591410116346
ALOS-4 (DAICHI-4)       
1 60182U 24123A   26160.24547005  .00001328  00000+0  18468-3 0  9994
2 60182  97.9241 257.5307 0001627  97.4618 262.6779 14.79469239104706
LEGION 3                
1 60452U 24146A   26160.22366747  .00003952  00000+0  21578-3 0  9990
2 60452  45.0012  73.2623 0006943 119.9013 240.2556 15.15977908100816
LEGION 4                
1 60453U 24146B   26160.29260006  .00002871  00000+0  16036-3 0  9991
2 60453  45.0003 164.8039 0014087 267.2949  92.6317 15.15975776 99674
SENTINEL-2C             
1 60989U 24157A   26160.20051239  .00000082  00000+0  47794-4 0  9992
2 60989  98.5691 235.0953 0001157  79.8088 280.3226 14.30815638 91847
IONOSFERA-M 1           
1 61735U 24199A   26160.24695773  .00000031  00000+0  33575-4 0  9995
2 61735  98.7184  33.5027 0001710 120.9124 239.2222 14.22752766126574
